[{"OBJECT_NAME":"HAWK-A","OBJECT_ID":"2018-099H","EPOCH":"2026-03-09T16:13:51.062880","MEAN_MOTION":15.23231043,"ECCENTRICITY":0.00342596,"INCLINATION":97.4051,"RA_OF_ASC_NODE":122.2425,"ARG_OF_PERICENTER":275.5523,"MEAN_ANOMALY":84.1807,"EPHEMERIS_TYPE":0,"CLASSIFICATION_TYPE":"U","NORAD_CAT_ID":43765,"ELEMENT_SET_NO":999,"REV_AT_EPOCH":39794,"BSTAR":0.00036104215,"MEAN_MOTION_DOT":8.617e-5,"MEAN_MOTION_DDOT":0},{"OBJECT_NAME":"STARLINK-30935","OBJECT_ID":"2023-183U","EPOCH":"2026-03-09T22:00:01.999584","MEAN_MOTION":15.26713327,"ECCENTRICITY":0.00014788,"INCLINATION":43.0006,"RA_OF_ASC_NODE":40.315,"ARG_OF_PERICENTER":261.288,"MEAN_ANOMALY":298.475,"EPHEMERIS_TYPE":0,"CLASSIFICATION_TYPE":"U","NORAD_CAT_ID":58455,"ELEMENT_SET_NO":999,"REV_AT_EPOCH":578,"BSTAR":0.0016210219,"MEAN_MOTION_DOT":0.00043443,"MEAN_MOTION_DDOT":0}]
